{
  "norad_id": 55921,
  "name": "STARLINK-5861",
  "history": [
    {
      "epoch": "2026-03-28T21:13:50.608128Z",
      "apogee_km": 573.4657826556231,
      "perigee_km": 570.6370559689622,
      "latitude_deg": 1.4761822256060459e-05,
      "longitude_deg": 111.24578735134557,
      "height_km": 574.2894844380692,
      "semi_major_axis_km": 6950.188419312292,
      "eccentricity": 0.0002035,
      "inclination_deg": 69.999,
      "raan_deg": 256.0053,
      "arg_perigee_deg": 277.6488,
      "mean_anomaly_deg": 82.444,
      "mean_motion_rev_day": 14.98331446
    },
    {
      "epoch": "2026-03-30T03:40:23.674656Z",
      "apogee_km": 573.4560307415104,
      "perigee_km": 570.5856155605488,
      "latitude_deg": -5.60450676298662e-05,
      "longitude_deg": 10.159255350806083,
      "height_km": 574.1757118505549,
      "semi_major_axis_km": 6950.157823151029,
      "eccentricity": 0.0002065,
      "inclination_deg": 69.9996,
      "raan_deg": 252.8068,
      "arg_perigee_deg": 280.904,
      "mean_anomaly_deg": 79.1886,
      "mean_motion_rev_day": 14.9834134
    },
    {
      "epoch": "2026-03-30T13:17:12.280704Z",
      "apogee_km": 573.3704115505625,
      "perigee_km": 570.7196121312454,
      "latitude_deg": -1.6147651346779108e-05,
      "longitude_deg": -135.4474674287318,
      "height_km": 574.3051159016936,
      "semi_major_axis_km": 6950.182011840903,
      "eccentricity": 0.0001907,
      "inclination_deg": 69.9996,
      "raan_deg": 251.7974,
      "arg_perigee_deg": 277.2003,
      "mean_anomaly_deg": 82.8939,
      "mean_motion_rev_day": 14.98333518
    },
    {
      "epoch": "2026-03-30T19:41:44.312928Z",
      "apogee_km": 573.2245274591478,
      "perigee_km": 570.8224129974278,
      "latitude_deg": -9.639312859558181e-07,
      "longitude_deg": 127.48236669450516,
      "height_km": 574.4647508735114,
      "semi_major_axis_km": 6950.1604702282875,
      "eccentricity": 0.00017281,
      "inclination_deg": 69.9993,
      "raan_deg": 251.1239,
      "arg_perigee_deg": 269.2734,
      "mean_anomaly_deg": 90.8227,
      "mean_motion_rev_day": 14.98340484
    },
    {
      "epoch": "2026-03-31T16:31:29.279712Z",
      "apogee_km": 573.4775385230514,
      "perigee_km": 570.6335197401313,
      "latitude_deg": 1.537962760013013e-05,
      "longitude_deg": 172.0013890847563,
      "height_km": 574.3313755599665,
      "semi_major_axis_km": 6950.192529131591,
      "eccentricity": 0.0002046,
      "inclination_deg": 69.9994,
      "raan_deg": 248.9357,
      "arg_perigee_deg": 276.0763,
      "mean_anomaly_deg": 84.0163,
      "mean_motion_rev_day": 14.98330117
    }
  ]
}